IRIDIUM 126             
1 42809U 17039G   25031.93160642  .00000054  00000+0  12093-4 0  9992
2 42809  86.3985 203.0835 0001936  99.3122 260.8292 14.34218290398104
IRIDIUM 124             
1 42810U 17039H   25031.58242728  .00001022  00000+0  29783-3 0  9990
2 42810  86.4538 140.0837 0002468  92.3868 267.7615 14.43287486402760
IRIDIUM 128             
1 42811U 17039J   25031.85256793  .00000215  00000+0  69760-4 0  9991
2 42811  86.3939 234.6116 0002426  91.3990 268.7484 14.34218050398124
IRIDIUM 121             
1 42812U 17039K   25031.53202304  .00000221  00000+0  71916-4 0  9999
2 42812  86.3985 203.2747 0002134  89.5976 270.5464 14.34220257397925
IRIDIUM 133             
1 42955U 17061A   25031.81452170  .00000187  00000+0  59685-4 0  9991
2 42955  86.3942 234.7328 0002157  92.2069 267.9373 14.34216844382918
IRIDIUM 100             
1 42956U 17061B   25031.80817827  .00000181  00000+0  57669-4 0  9999
2 42956  86.3941 234.6659 0002159  92.5138 267.6305 14.34218517382917
IRIDIUM 122             
1 42957U 17061C   25031.49739012  .00000171  00000+0  53958-4 0  9990
2 42957  86.3942 234.7948 0002029  97.7466 262.3961 14.34217820382879
IRIDIUM 129             
1 42958U 17061D   25031.80183576  .00000165  00000+0  51809-4 0  9990
2 42958  86.3942 234.7290 0001643  86.7487 273.3896 14.34218247382932
